{
  "type": "FeatureCollection",
  "features": [
    {
      "type": "Feature",
      "properties": {
        "kategori_lahan": "Militer",
        "name": "Area Militer"
      },
      "geometry": {
        "type": "Polygon",
        "coordinates": [
          [
            [111.97991842928121, -7.797306360059608],
            [111.98011972929754, -7.797709880963055],
            [111.98014702215727, -7.79776396193931],
            [111.98018867967943, -7.797843660207107],
            [111.98028492292099, -7.798030097165892],
            [111.98042857438776, -7.7982748841118195],
            [111.98050039770271, -7.798390161817878],
            [111.98044293879985, -7.798717500525811],
            [111.98012260671442, -7.7995236720670675],
            [111.97977929190239, -7.800576051534065],
            [111.9796471377266, -7.801152725205398],
            [111.97939997514902, -7.801975301234194],
            [111.9789647822293, -7.803380020029479],
            [111.97903516907769, -7.803519490115022],
            [111.97902798674653, -7.803539414409613],
            [111.97886135665652, -7.80326189737022],
            [111.97877804161072, -7.803139505181306],
            [111.9786343949823, -7.802984380146611],
            [111.97856113520226, -7.802910375523254],
            [111.97850942241433, -7.802870526873235],
            [111.97845914609451, -7.802833524553819],
            [111.97839882135781, -7.802802218260737],
            [111.9783097604489, -7.802785140264305],
            [111.97827672172298, -7.802779447599178],
            [111.978171859685, -7.802793679262621],
            [111.97798942846612, -7.80282641208899],
            [111.97786502659244, -7.802890459465985],
            [111.97751740174994, -7.803084010003289],
            [111.97736369985716, -7.803166553586578],
            [111.97723729100062, -7.803204979375224],
            [111.97707066091198, -7.803233442674085],
            [111.97669287027674, -7.803371489643922],
            [111.97636590210612, -7.803514159922997],
            [111.9762524212689, -7.803578202294929],
            [111.97613750396533, -7.803670707924724],
            [111.9760642441853, -7.803741866088259],
            [111.97560399484092, -7.804291367491203],
            [111.97543593027075, -7.804484917397886],
            [111.97523769792281, -7.804692698795762],
            [111.9750437767766, -7.804867747253198],
            [111.97476510231598, -7.805078374777011],
            [111.97418547324912, -7.80549049798924],
            [111.97392259977335, -7.80567835532139],
            [111.97380337297625, -7.805809285802951],
            [111.97376458838721, -7.805850557327574],
            [111.97373442259362, -7.8059054565109705],
            [111.97328757324539, -7.805603745278745],
            [111.97307276425323, -7.805402631564505],
            [111.972842537264, -7.805184018468765],
            [111.97265671911447, -7.804704672207308],
            [111.97251648076275, -7.804085409773066],
            [111.97256206115242, -7.803813550571078],
            [111.97207064983087, -7.803656277932504],
            [111.97081086769629, -7.803495584535497],
            [111.97085388742806, -7.803339684738745],
            [111.97085361054951, -7.803138677892164],
            [111.97082304613286, -7.802722579829549],
            [111.97082516980089, -7.802246486916516],
            [111.97085227392546, -7.802002122650649],
            [111.97065688828803, -7.801753399456928],
            [111.97065146863741, -7.801651358036125],
            [111.97075446430892, -7.80160302218961],
            [111.97083848709445, -7.801509035804557],
            [111.97088998492956, -7.80142310537812],
            [111.97103363785845, -7.800854554421974],
            [111.97092251210194, -7.800427435285982],
            [111.97087372467837, -7.800336133970319],
            [111.97080036026318, -7.800263204710731],
            [111.97055320015369, -7.800173223749368],
            [111.97036277720207, -7.800122247178166],
            [111.96933556257517, -7.799728980321007],
            [111.96925241987788, -7.799625349128277],
            [111.96921487156175, -7.799335713094123],
            [111.9693086957455, -7.799263943459934],
            [111.9694052485562, -7.799210799203124],
            [111.96950716541153, -7.799115139523096],
            [111.96956080732457, -7.799030109399595],
            [111.96960640352182, -7.798928343688601],
            [111.96965467992851, -7.798710452015641],
            [111.96965467992851, -7.798580248400668],
            [111.96971368717413, -7.798217020114009],
            [111.96971368717413, -7.797637745895017],
            [111.96977370111756, -7.797247815795316],
            [111.96978979325263, -7.797040552155025],
            [111.96974419886891, -7.79694754920655],
            [111.96958595954072, -7.79679077275928],
            [111.96924266065747, -7.796780143846476],
            [111.96899718370122, -7.796674523746802],
            [111.96900791179178, -7.796515089967983],
            [111.9692171095482, -7.796395514594039],
            [111.96931018201059, -7.796353575335985],
            [111.96951133369953, -7.796279172855904],
            [111.96957570223998, -7.796257915001277],
            [111.97012015281229, -7.795968276637254],
            [111.97018452135268, -7.795673323599615],
            [111.97060844054806, -7.795619751453572],
            [111.97089307285262, -7.795743832224687],
            [111.97100529930486, -7.795709992018175],
            [111.97104921400239, -7.79553112230974],
            [111.97112077690434, -7.795418351808735],
            [111.9712362562961, -7.795418351808735],
            [111.97138101215347, -7.795426409006339],
            [111.97152088860071, -7.795490866584146],
            [111.97176313260655, -7.795516841748082],
            [111.97188695047697, -7.795513613494862],
            [111.97191953412693, -7.795425805012201],
            [111.97193346567622, -7.795291126615425],
            [111.97209680321129, -7.795278720234137],
            [111.97229128585491, -7.79534730775994],
            [111.97240909209575, -7.795348576380292],
            [111.97258787449272, -7.7953909498032345],
            [111.97279082242062, -7.795352649186285],
            [111.97312811657594, -7.795353509394772],
            [111.97349836925486, -7.795363401469615],
            [111.97379330455925, -7.795483997734223],
            [111.97391561274742, -7.795448551141575],
            [111.9740032289605, -7.795445880329197],
            [111.97416076394433, -7.7925931171455005],
            [111.97805455910066, -7.794698771091632],
            [111.9783962868637, -7.79489890093808],
            [111.97842825708125, -7.794968585514468],
            [111.9784295358902, -7.795072478860533],
            [111.97871404409864, -7.795116136190956],
            [111.97885625312693, -7.795195691443098],
            [111.97905084929374, -7.795461057779292],
            [111.97917618755639, -7.795748754233372],
            [111.97943724050282, -7.796323509998203],
            [111.97966401376897, -7.796819889340512],
            [111.97975878828123, -7.796996788444005],
            [111.9799188580867, -7.797306449797134],
            [111.97991842928121, -7.797306360059608]
          ]
        ]
      },
      "id": 1
    }
  ]
}