{
  "type": "FeatureCollection",
  "features": [
    {
      "type": "Feature",
      "properties": {
        "name": "Pemukiman Sukorame"
      },
      "geometry": {
        "type": "Polygon",
        "coordinates": [
          [
            [111.98881615719898, -7.8066372288348305],
            [111.98868387255374, -7.807079138040322],
            [111.98473025066642, -7.805785862686392],
            [111.98333917216905, -7.807231682650254],
            [111.98380560987840, -7.807362788051094],
            [111.98300748231043, -7.810161341916739],
            [111.98348506109528, -7.810112377005893],
            [111.98338174433098, -7.810634885648767],
            [111.98322002943064, -7.810641111605392],
            [111.98317685361275, -7.811272534788472],
            [111.98322250292324, -7.811433747095620],
            [111.98324847785636, -7.811558265967108],
            [111.98326144257214, -7.811667314228487],
            [111.98333517786398, -7.811770664836459],
            [111.98341757197363, -7.811838014327634],
            [111.98358054372562, -7.811873294644272],
            [111.98383380725289, -7.811853528649223],
            [111.98411699283434, -7.811773946074510],
            [111.98412800362809, -7.811533927921047],
            [111.98493897233112, -7.811486535437481],
            [111.98527894097776, -7.811474257301569],
            [111.98552359811487, -7.811482591520729],
            [111.98634467541018, -7.811728572282320],
            [111.98649210330643, -7.811733857566551],
            [111.98678863468797, -7.8118116427871485],
            [111.98684051041351, -7.811867204199601],
            [111.98704170197908, -7.811926237349994],
            [111.98701856821009, -7.811992216508770],
            [111.98715106161632, -7.812031109482717],
            [111.98710689550882, -7.812374065508337],
            [111.98735180040023, -7.812431059212017],
            [111.98733988300336, -7.812503983456423],
            [111.98868354057464, -7.812824321329430],
            [111.98875434393005, -7.812656942934154],
            [111.98898988776398, -7.812559016124453],
            [111.98924271782977, -7.812611086303733],
            [111.98950409867865, -7.812742349809255],
            [111.98972772511695, -7.812760407229305],
            [111.99057516331669, -7.813121213758933],
            [111.99045717133805, -7.813413455228869],
            [111.99150866661802, -7.813820717318961],
            [111.99146559017953, -7.813959879715839],
            [111.99269064015010, -7.814218522099480],
            [111.99266971860294, -7.814315704303155],
            [111.99382221097108, -7.814645657381391],
            [111.99487949935406, -7.811915575065910],
            [111.99536744515945, -7.811904254480751],
            [111.99537888078032, -7.811255913522373],
            [111.99549577794704, -7.811189195448833],
            [111.99578805544138, -7.810229801655524],
            [111.99541661632583, -7.810056305791832],
            [111.99551064151774, -7.809832233008621],
            [111.99487024834445, -7.809618230872388],
            [111.99466206197678, -7.809486150075458],
            [111.99442572640135, -7.809359007538191],
            [111.99393192732100, -7.809216536224454],
            [111.99346179741212, -7.809101981984568],
            [111.99232081426885, -7.808704103579970],
            [111.98985371670904, -7.807997305712533],
            [111.99010299953545, -7.806989721113851],
            [111.98881511276988, -7.806637132308239],

            [111.98881615719898, -7.8066372288348305]
          ]
        ]
      }
    }
  ]
}
