{
  "type": "FeatureCollection",
  "features": [
    {
      "type": "Feature",
      "properties": {
        "kategori_lahan": "Sawah",
        "name": "Area Sawah"
      },
      "geometry": {
        "type": "Polygon",
        "coordinates": [
          [
            [111.9839051294926, -7.806648859039186],
            [111.98092515189131, -7.805741427426838],
            [111.98006776459937, -7.803875727210325],
            [111.98029768033666, -7.803214541475995],
            [111.980628983016, -7.8032816060748615],
            [111.98091403438042, -7.80181466001487],
            [111.98078616996878, -7.801797456560621],
            [111.98080652543177, -7.800994383108588],
            [111.97980034404213, -7.800680179664724],
            [111.97976428169073, -7.800667839129034],
            [111.97979666474254, -7.8005321017003695],
            [111.98012537045855, -7.7995269245332395],
            [111.98044690377895, -7.798717787220781],
            [111.98050556603062, -7.79839023223343],
            [111.98024543177326, -7.797940541170789],
            [111.97991911066725, -7.797307506671785],
            [111.98062382799492, -7.797117040289493],
            [111.98090388668845, -7.797083461181472],
            [111.98124202282713, -7.797144283930336],
            [111.98149175669425, -7.797220278738408],
            [111.98162375888148, -7.797222046059602],
            [111.98204084146852, -7.797428339502957],
            [111.98211219400127, -7.797423037542657],
            [111.98191954624014, -7.798555324138775],
            [111.98179690324713, -7.79894701222598],
            [111.98186825577977, -7.799035377900054],
            [111.98267265310176, -7.799205520781641],
            [111.98264743000226, -7.799676968336655],
            [111.98236380408855, -7.801018353943348],
            [111.98258856456846, -7.80103249238293],
            [111.98251419888777, -7.801457032834207],
            [111.9821198575886, -7.802956321227768],
            [111.98200366660393, -7.803868151116404],
            [111.98203424311549, -7.803689420418152],
            [111.98218101036844, -7.803265313373515],
            [111.98225439399494, -7.80320472661667],
            [111.98252040900684, -7.803244108212965],
            [111.98261305204016, -7.802946446249194],
            [111.98300596500962, -7.803039872222342],
            [111.98311074180026, -7.802972397910921],
            [111.98371844719264, -7.803071014208783],
            [111.98435234678078, -7.803309769361931],
            [111.98448855661013, -7.803309769361931],
            [111.98460381108168, -7.803200772461523],
            [111.98491432625798, -7.80330976158524],
            [111.98507149144524, -7.803200764684789],
            [111.9852338954716, -7.802754396129046],
            [111.98721567050268, -7.803365027578209],
            [111.98809055671211, -7.8011643230394725],
            [111.99033790633678, -7.801877502919908],
            [111.98982450005667, -7.803351558500637],
            [111.98974067862395, -7.803387890790347],
            [111.98881865202179, -7.806642202569108],
            [111.98868231321035, -7.807065680710423],
            [111.98472721206929, -7.805799515661036],
            [111.98389480198568, -7.806649668337656],
            [111.9839051294926, -7.806648859039186]
          ]
        ]
      }
    }
  ]
}
